STARLINK-6061           
1 56795U 23078AE  26068.46202690 -.00000189  00000+0 -80139-5 0  9998
2 56795  70.0004 324.8598 0003065 274.8249  85.2560 14.98330180153141
HYPSO-2                 
1 60531U 24149BR  26068.64186663  .00003981  00000+0  33980-3 0  9993
2 60531  97.6894 146.3679 0001390  74.8032 285.3344 14.98259029 85149
